STARLINK-30455          
1 57942U 23148H   25072.79908461 -.00000193  00000+0  56153-5 0  9993
2 57942  53.1590 260.7856 0000982  55.4991 304.6103 15.30193964 83085
STARLINK-30456          
1 57943U 23148J   25072.78644426 -.00011972  00000+0 -39213-3 0  9995
2 57943  53.1574 260.8383 0002117 139.0086 221.1074 15.30245485 83075
STARLINK-30708          
1 57944U 23148K   25071.85198841  .00000370  00000+0  24618-4 0  9990
2 57944  53.1578 264.9642 0001330  91.2975 268.8178 15.30192877 83029
STARLINK-30705          
1 57945U 23148L   25072.84226142  .00000742  00000+0  37158-4 0  9993
2 57945  53.1591 260.4830 0000739  72.3896 287.7186 15.30196104 83081
STARLINK-30704          
1 57946U 23148M   25072.86427821  .00000553  00000+0  58002-4 0  9994
2 57946  53.1607 318.5675 0001453  89.7005 270.4151 15.04927173 82269
STARLINK-30706          
1 57947U 23148N   25072.78329995 -.00002256  00000+0 -64119-4 0  9999
2 57947  53.1593 260.8125 0000959  99.3426 260.7683 15.30181385 83075
STARLINK-30709          
1 57948U 23148P   25072.78748098  .00001015  00000+0  46431-4 0  9996
2 57948  53.1586 260.6827 0001227  97.2040 262.9100 15.30179388 83071
STARLINK-30707          
1 57949U 23148Q   25072.25759003 -.00000061  00000+0  10052-4 0  9998
2 57949  53.1593 263.2255 0001228  83.1426 276.9714 15.30191359 83086
STARLINK-30701          
1 57950U 23148R   25072.83909897  .00004903  00000+0  17776-3 0  9999
2 57950  53.1580 260.4380 0001550 105.3326 254.7846 15.30160224 83094
STARLINK-30399          
1 57951U 23148S   25072.83486943  .00008069  00000+0  28436-3 0  9994
2 57951  53.1580 260.4131 0001427  74.7573 285.3585 15.30190560 83091
STARLINK-30713          
1 57952U 23148T   25072.23121123 -.00001244  00000+0 -29892-4 0  9993
2 57952  53.1578 263.0697 0000890 106.1583 253.9516 15.30185213 83082
STARLINK-30700          
1 57953U 23148U   25072.85708307 -.00001984  00000+0 -54954-4 0  9995
2 57953  53.1588 250.2456 0000988  78.0326 282.0786 15.30162179 83229
STARLINK-30703          
1 57954U 23148V   25072.76540808 -.00003159  00000+0 -94572-4 0  9992
2 57954  53.1592 250.6328 0001052  88.1401 271.9720 15.30201361 83217
STARLINK-30702          
1 57955U 23148W   25071.78990336  .00000701  00000+0  35807-4 0  9993
2 57955  53.1577 255.2030 0001217  82.9555 277.1584 15.30193439 83152
STARLINK-30396          
1 57964U 23151A   25071.92264714  .00003668  00000+0  28640-3 0  9998
2 57964  43.0008 144.6056 0001096 277.4516  82.6202 15.02545675 81315
STARLINK-30524          
1 57965U 23151B   25072.49212576 -.00001611  00000+0 -10428-3 0  9994
2 57965  43.0015 141.1514 0001181 259.8935 100.1774 15.02516338 81403
STARLINK-30521          
1 57966U 23151C   25072.56634418 -.00000092  00000+0  82348-5 0  9999
2 57966  43.0022 140.8375 0001417 264.7849  95.2832 15.02537663 81351
STARLINK-30528          
1 57967U 23151D   25072.36357753  .00000436  00000+0  47325-4 0  9998
2 57967  43.0020 141.8913 0001217 275.6604  84.4099 15.02535954 81386
STARLINK-30495          
1 57968U 23151E   25072.46002384 -.00000683  00000+0 -35525-4 0  9992
2 57968  43.0028 141.7513 0000996 268.7937  91.2791 15.02534350 81390
STARLINK-30484          
1 57969U 23151F   25072.49321356 -.00000909  00000+0 -52228-4 0  9999
2 57969  43.0040 141.1466 0001801 279.4382  80.6257 15.02531979 81400
STARLINK-30494          
1 57970U 23151G   25072.46325091 -.00000994  00000+0 -28168-4 0  9998
2 57970  43.0034 124.7587 0001641 251.8402 108.2271 15.25915105 81590
STARLINK-30498          
1 57971U 23151H   25072.59852204  .00000717  00000+0  68168-4 0  9999
2 57971  43.0034 141.0551 0001351 259.4248 100.6442 15.02541248 81419
STARLINK-30505          
1 57972U 23151J   25072.48221043  .00004409  00000+0  34114-3 0  9994
2 57972  43.0012 141.9028 0001307 277.5919  82.4775 15.02551337 81394
STARLINK-30502          
1 57973U 23151K   25072.60295388  .00002083  00000+0  16917-3 0  9999
2 57973  43.0002 141.0899 0001210 270.1535  89.9168 15.02546543 81411
STARLINK-30489          
1 57974U 23151L   25072.36246613 -.00005140  00000+0 -36582-3 0  9999
2 57974  43.0015 141.8775 0001656 280.4715  79.5941 15.02522872 81384
STARLINK-30503          
1 57975U 23151M   25072.61073375 -.00001422  00000+0 -90220-4 0  9990
2 57975  43.0015 141.1255 0001350 265.8294  94.2394 15.02538177 81405
STARLINK-30512          
1 57976U 23151N   25072.44669360  .00003019  00000+0  23851-3 0  9994
2 57976  43.0010 141.5896 0001309 266.7052  93.3641 15.02528659 81399
STARLINK-30509          
1 57977U 23151P   25072.50079262 -.00000074  00000+0  95777-5 0  9995
2 57977  43.0020 154.7716 0001283 260.0817  99.9880 15.02538861 81242
STARLINK-30511          
1 57978U 23151Q   25072.49413457  .00004269  00000+0  33094-3 0  9993
2 57978  43.0012 154.7206 0001679 255.1260 104.9396 15.02533768 81244
STARLINK-30508          
1 57979U 23151R   25072.62375202 -.00000990  00000+0 -58211-4 0  9992
2 57979  42.9997 153.9748 0001013 276.8220  83.2507 15.02545059 81200
STARLINK-30504          
1 57980U 23151S   25072.50546639  .00001511  00000+0  67599-4 0  9992
2 57980  43.0009 110.6440 0001322 277.5213  82.5488 15.25911221 81764
STARLINK-30510          
1 57981U 23151T   25072.48747720  .00000443  00000+0  47890-4 0  9999
2 57981  43.0026 154.6731 0001613 276.5248  83.5410 15.02535073 81246
STARLINK-30507          
1 57982U 23151U   25072.28470462  .00001729  00000+0  14299-3 0  9998
2 57982  43.0024 155.7323 0001338 264.4172  95.6518 15.02546065 81213
STARLINK-30515          
1 57983U 23151V   25072.21490108  .00001941  00000+0  15870-3 0  9993
2 57983  42.9997 156.0668 0000508 255.8709 104.2076 15.02544712 81207
STARLINK-30516          
1 57984U 23151W   25072.27804595  .00003680  00000+0  28723-3 0  9992
2 57984  43.0012 155.6808 0001240 259.4666 100.6036 15.02548426 81218
STARLINK-30519          
1 57985U 23151X   25072.40767758 -.00000516  00000+0 -23161-4 0  9996
2 57985  42.9989 154.9307 0001451 267.6501  92.4176 15.02538690 81179
STARLINK-30537          
1 57991U 23153A   25072.45921958  .00006274  00000+0  47904-3 0  9999
2 57991  43.0030 231.9472 0001003 268.6071  91.4656 15.02539247 80439
STARLINK-30534          
1 57992U 23153B   25072.80159625  .00000051  00000+0  18848-4 0  9996
2 57992  43.0039 230.2108 0001367 268.0887  91.9799 15.02534114 80496
STARLINK-30536          
1 57993U 23153C   25072.45255073  .00001014  00000+0  90135-4 0  9991
2 57993  43.0036 231.8965 0001377 267.4467  92.6217 15.02545945 80532
STARLINK-30538          
1 57994U 23153D   25072.71180606  .00001092  00000+0  95851-4 0  9996
2 57994  43.0008 230.3947 0001210 267.1387  92.9317 15.02542597 80477
STARLINK-30517          
1 57995U 23153E   25072.70847902  .00000095  00000+0  22116-4 0  9991
2 57995  43.0035 230.3720 0001316 265.1654  94.9039 15.02533549 80581
STARLINK-30543          
1 57996U 23153F   25072.86061899  .00131241  00000+0  26500-2 0  9999
2 57996  43.0039   7.6146 0005532 222.7910 137.2518 15.45302504 83152
STARLINK-30523          
1 57997U 23153G   25072.84809172  .00001205  00000+0  10430-3 0  9994
2 57997  43.0033 229.7036 0001474 265.8803  94.1870 15.02531037 80609
STARLINK-30531          
1 57998U 23153H   25072.54556077 -.00000437  00000+0 -17265-4 0  9997
2 57998  43.0009 230.8765 0001419 270.2824  89.7856 15.02528884 80551
STARLINK-30552          
1 57999U 23153J   25072.16999664  .00003610  00000+0  28215-3 0  9999
2 57999  43.0027 233.2144 0001318 271.1704  88.8988 15.02538835 80491
STARLINK-30545          
1 58000U 23153K   25072.43257739  .00000234  00000+0  32378-4 0  9998
2 58000  43.0008 231.7395 0000705 263.8237  96.2525 15.02537147 80533
STARLINK-30535          
1 58001U 23153L   25072.82811351 -.00001609  00000+0 -10405-3 0  9993
2 58001  43.0025 229.5475 0001485 272.3323  87.7349 15.02532683 80601
STARLINK-30540          
1 58002U 23153M   25072.66530779  .00000387  00000+0  43753-4 0  9991
2 58002  43.0035 230.8897 0001585 264.0782  95.9880 15.02533074 80464
STARLINK-30546          
1 58003U 23153N   25072.82478544 -.00000553  00000+0 -25902-4 0  9994
2 58003  43.0032 229.5249 0001278 270.0010  90.0686 15.02533634 80606
STARLINK-30539          
1 58004U 23153P   25072.48906245  .00004375  00000+0  33864-3 0  9990
2 58004  43.0035 231.3084 0001484 274.3274  85.7399 15.02543358 80545
STARLINK-30530          
1 58005U 23153Q   25072.74832122 -.00000435  00000+0 -17108-4 0  9991
2 58005  43.0033 229.8089 0001582 264.4222  95.6440 15.02534431 80597
STARLINK-30526          
1 58006U 23153R   25072.76226164 -.00000403  00000+0 -14768-4 0  9991
2 58006  43.0028 204.7247 0001032 271.0201  89.0523 15.02534594 80871
STARLINK-30527          
1 58007U 23153S   25072.31715913 -.00000535  00000+0 -81996-5 0  9992
2 58007  43.0013  79.9772 0001147 283.0137  77.0588 15.32110843 82183
STARLINK-30522          
1 58008U 23153T   25072.63867220  .00000229  00000+0  32020-4 0  9998
2 58008  43.0027 230.7009 0001351 264.7413  95.3275 15.02534873 80565
STARLINK-30486          
1 58009U 23153U   25072.68516105  .00001295  00000+0  11089-3 0  9992
2 58009  43.0035 230.1920 0001396 266.9316  93.1366 15.02548045 80255
STARLINK-30520          
1 58010U 23153V   25072.80825124 -.00001505  00000+0 -96339-4 0  9990
2 58010  43.0024 230.2441 0001426 264.5759  95.4920 15.02543449 80482
STARLINK-30497          
1 58011U 23153W   25072.47252851  .00001611  00000+0  13431-3 0  9992
2 58011  43.0035 232.0250 0001670 281.8831  78.1824 15.02528830 80531
STARLINK-30525          
1 58012U 23153X   25072.79491935  .00000460  00000+0  49089-4 0  9996
2 58012  43.0023 230.1419 0001181 273.4104  86.6603 15.02552762 80587
STARLINK-30514          
1 58028U 23156A   25072.86011513 -.00003209  00000+0 -84456-4 0  9997
2 58028  53.1617 316.3634 0001127  53.4498 306.6608 15.34195028 81048
